{
  "norad_id": 63762,
  "name": "STARLINK-11699 [DTC]",
  "history": [
    {
      "epoch": "2026-03-28T15:40:57.903744Z",
      "apogee_km": 359.27147296200565,
      "perigee_km": 352.85378071762716,
      "latitude_deg": 1.2636937341977924e-06,
      "longitude_deg": 117.01373221794734,
      "height_km": 355.4825814077482,
      "semi_major_axis_km": 6734.199626839816,
      "eccentricity": 0.0004765,
      "inclination_deg": 43.0043,
      "raan_deg": 178.3258,
      "arg_perigee_deg": 276.3525,
      "mean_anomaly_deg": 83.68,
      "mean_motion_rev_day": 15.70991309
    },
    {
      "epoch": "2026-03-30T04:18:24.969888Z",
      "apogee_km": 357.6534078711438,
      "perigee_km": 355.2370397692375,
      "latitude_deg": 2.325214791711133e-05,
      "longitude_deg": -83.0529211893053,
      "height_km": 356.06571547608655,
      "semi_major_axis_km": 6734.582223820191,
      "eccentricity": 0.0001794,
      "inclination_deg": 43.0018,
      "raan_deg": 169.126,
      "arg_perigee_deg": 277.2506,
      "mean_anomaly_deg": 82.8158,
      "mean_motion_rev_day": 15.70857437
    },
    {
      "epoch": "2026-03-30T05:49:58.465056Z",
      "apogee_km": 357.3345985139258,
      "perigee_km": 355.38361499179973,
      "latitude_deg": 2.3768880338972158e-05,
      "longitude_deg": -106.39025316063487,
      "height_km": 355.79653209816826,
      "semi_major_axis_km": 6734.496106752862,
      "eccentricity": 0.00014485,
      "inclination_deg": 43.0002,
      "raan_deg": 168.7409,
      "arg_perigee_deg": 290.0885,
      "mean_anomaly_deg": 69.9827,
      "mean_motion_rev_day": 15.70887568
    },
    {
      "epoch": "2026-03-30T13:27:46.823040Z",
      "apogee_km": 357.34522538884084,
      "perigee_km": 355.54587962246296,
      "latitude_deg": -1.0471358729196235e-05,
      "longitude_deg": 136.92946204585306,
      "height_km": 356.13513410626166,
      "semi_major_axis_km": 6734.582552505652,
      "eccentricity": 0.00013359,
      "inclination_deg": 43.0004,
      "raan_deg": 166.8255,
      "arg_perigee_deg": 275.2847,
      "mean_anomaly_deg": 84.7868,
      "mean_motion_rev_day": 15.70857322
    },
    {
      "epoch": "2026-03-31T07:46:29.825184Z",
      "apogee_km": 360.96704522421896,
      "perigee_km": 352.26843600124266,
      "latitude_deg": 2.755964489545634e-05,
      "longitude_deg": -143.09971689881192,
      "height_km": 354.20582341450313,
      "semi_major_axis_km": 6734.7547406127305,
      "eccentricity": 0.0006458,
      "inclination_deg": 43.0008,
      "raan_deg": 162.2275,
      "arg_perigee_deg": 300.1892,
      "mean_anomaly_deg": 59.8336,
      "mean_motion_rev_day": 15.70797079
    },
    {
      "epoch": "2026-04-01T11:14:34.445472Z",
      "apogee_km": 357.0896548184046,
      "perigee_km": 355.6363497179145,
      "latitude_deg": -9.03869630097432e-06,
      "longitude_deg": 156.85402577655668,
      "height_km": 356.79448637530095,
      "semi_major_axis_km": 6734.50000226816,
      "eccentricity": 0.0001079,
      "inclination_deg": 42.9997,
      "raan_deg": 155.3286,
      "arg_perigee_deg": 155.4455,
      "mean_anomaly_deg": 204.6464,
      "mean_motion_rev_day": 15.70886205
    },
    {
      "epoch": "2026-04-02T20:48:53.569152Z",
      "apogee_km": 357.5577856448608,
      "perigee_km": 354.6632713721583,
      "latitude_deg": 1.5951605173724237e-05,
      "longitude_deg": 3.465119507979467,
      "height_km": 355.03806367641357,
      "semi_major_axis_km": 6734.247528508509,
      "eccentricity": 0.00021491,
      "inclination_deg": 43.0007,
      "raan_deg": 146.8981,
      "arg_perigee_deg": 54.4325,
      "mean_anomaly_deg": 305.6743,
      "mean_motion_rev_day": 15.70974547
    },
    {
      "epoch": "2026-04-03T10:32:54.028608Z",
      "apogee_km": 357.9980005353036,
      "perigee_km": 355.0334064152348,
      "latitude_deg": -7.492695945470177e-07,
      "longitude_deg": 153.44837415887284,
      "height_km": 357.3572976988073,
      "semi_major_axis_km": 6734.652703475269,
      "eccentricity": 0.0002201,
      "inclination_deg": 43.0009,
      "raan_deg": 143.4473,
      "arg_perigee_deg": 136.3309,
      "mean_anomaly_deg": 223.7733,
      "mean_motion_rev_day": 15.70832778
    },
    {
      "epoch": "2026-04-04T12:29:26.262240Z",
      "apogee_km": 356.91559344433335,
      "perigee_km": 355.4756584422539,
      "latitude_deg": 2.6121022956358575e-05,
      "longitude_deg": 116.73538360036838,
      "height_km": 356.031527893335,
      "semi_major_axis_km": 6734.332625943293,
      "eccentricity": 0.00010691,
      "inclination_deg": 43.0005,
      "raan_deg": 136.934,
      "arg_perigee_deg": 264.9235,
      "mean_anomaly_deg": 95.1511,
      "mean_motion_rev_day": 15.7094477
    },
    {
      "epoch": "2026-04-05T12:54:25.023168Z",
      "apogee_km": 357.12550729998566,
      "perigee_km": 355.61670810353553,
      "latitude_deg": -2.6594846312824572e-05,
      "longitude_deg": 103.35394603345406,
      "height_km": 356.3330381693857,
      "semi_major_axis_km": 6734.50810770176,
      "eccentricity": 0.00011202,
      "inclination_deg": 42.9983,
      "raan_deg": 130.8002,
      "arg_perigee_deg": 255.4146,
      "mean_anomaly_deg": 104.6597,
      "mean_motion_rev_day": 15.70883369
    },
    {
      "epoch": "2026-04-05T19:00:39.065184Z",
      "apogee_km": 356.8398688640982,
      "perigee_km": 355.6977136419018,
      "latitude_deg": -1.0537510751834712e-06,
      "longitude_deg": 10.013586126667086,
      "height_km": 356.1429251159727,
      "semi_major_axis_km": 6734.405791253,
      "eccentricity": 8.48e-05,
      "inclination_deg": 42.9985,
      "raan_deg": 129.269,
      "arg_perigee_deg": 259.6733,
      "mean_anomaly_deg": 100.4039,
      "mean_motion_rev_day": 15.70919169
    },
    {
      "epoch": "2026-04-06T02:38:25.646784Z",
      "apogee_km": 357.7817614350679,
      "perigee_km": 354.6236254924206,
      "latitude_deg": 3.5687925048489515e-05,
      "longitude_deg": -106.66200212560932,
      "height_km": 356.5794473531699,
      "semi_major_axis_km": 6734.339693463744,
      "eccentricity": 0.00023448,
      "inclination_deg": 43.0014,
      "raan_deg": 127.3508,
      "arg_perigee_deg": 247.5248,
      "mean_anomaly_deg": 112.5372,
      "mean_motion_rev_day": 15.70942297
    },
    {
      "epoch": "2026-04-07T10:41:11.361696Z",
      "apogee_km": 357.6739373372411,
      "perigee_km": 354.5651351498491,
      "latitude_deg": -2.2669402097329943e-05,
      "longitude_deg": 123.28246956850968,
      "height_km": 355.48537775135105,
      "semi_major_axis_km": 6734.256536243544,
      "eccentricity": 0.00023082,
      "inclination_deg": 43.0014,
      "raan_deg": 119.3019,
      "arg_perigee_deg": 285.1965,
      "mean_anomaly_deg": 74.8647,
      "mean_motion_rev_day": 15.70971395
    },
    {
      "epoch": "2026-04-07T18:19:00.206112Z",
      "apogee_km": 356.87893838239324,
      "perigee_km": 355.82162387925473,
      "latitude_deg": -1.91311029986118e-05,
      "longitude_deg": 6.5999914103503174,
      "height_km": 355.5936650252877,
      "semi_major_axis_km": 6734.487281130823,
      "eccentricity": 7.85e-05,
      "inclination_deg": 43.001,
      "raan_deg": 117.3863,
      "arg_perigee_deg": 3.0409,
      "mean_anomaly_deg": 357.0463,
      "mean_motion_rev_day": 15.70890656
    },
    {
      "epoch": "2026-04-08T09:34:35.207904Z",
      "apogee_km": 357.7919658962155,
      "perigee_km": 354.8277317712327,
      "latitude_deg": -3.595474354721438e-05,
      "longitude_deg": 133.24423620534324,
      "height_km": 356.1074050169486,
      "semi_major_axis_km": 6734.446848833723,
      "eccentricity": 0.00022008,
      "inclination_deg": 43.0041,
      "raan_deg": 113.5531,
      "arg_perigee_deg": 269.0711,
      "mean_anomaly_deg": 90.9904,
      "mean_motion_rev_day": 15.70904803
    },
    {
      "epoch": "2026-04-10T07:21:23.018688Z",
      "apogee_km": 357.4195745380339,
      "perigee_km": 355.61603398145326,
      "latitude_deg": 2.101564472170182e-05,
      "longitude_deg": 153.16756421867817,
      "height_km": 355.99298480938774,
      "semi_major_axis_km": 6734.654804259743,
      "eccentricity": 0.0001339,
      "inclination_deg": 43.0015,
      "raan_deg": 102.0557,
      "arg_perigee_deg": 289.254,
      "mean_anomaly_deg": 70.8183,
      "mean_motion_rev_day": 15.70832043
    },
    {
      "epoch": "2026-04-11T10:49:28.241184Z",
      "apogee_km": 357.5419184734319,
      "perigee_km": 355.40031309261303,
      "latitude_deg": -6.51795577354057e-05,
      "longitude_deg": 93.11903405685646,
      "height_km": 355.208458553544,
      "semi_major_axis_km": 6734.608115783022,
      "eccentricity": 0.000159,
      "inclination_deg": 43.0011,
      "raan_deg": 95.1571,
      "arg_perigee_deg": 15.1355,
      "mean_anomaly_deg": 344.9559,
      "mean_motion_rev_day": 15.70848378
    },
    {
      "epoch": "2026-04-13T07:04:41.343744Z",
      "apogee_km": 357.72482934119216,
      "perigee_km": 355.0879862153115,
      "latitude_deg": -1.9808978431598018e-05,
      "longitude_deg": 136.38195484574766,
      "height_km": 356.19527197046756,
      "semi_major_axis_km": 6734.543407778252,
      "eccentricity": 0.00019577,
      "inclination_deg": 43.0003,
      "raan_deg": 84.042,
      "arg_perigee_deg": 269.3071,
      "mean_anomaly_deg": 90.7572,
      "mean_motion_rev_day": 15.70871018
    },
    {
      "epoch": "2026-04-14T15:07:27.223680Z",
      "apogee_km": 356.70177686036914,
      "perigee_km": 355.9717599038768,
      "latitude_deg": 4.015789775683336e-06,
      "longitude_deg": 6.3258295687956,
      "height_km": 355.8669280721991,
      "semi_major_axis_km": 6734.473768382123,
      "eccentricity": 5.42e-05,
      "inclination_deg": 42.999,
      "raan_deg": 75.9931,
      "arg_perigee_deg": 311.3846,
      "mean_anomaly_deg": 48.6975,
      "mean_motion_rev_day": 15.70895384
    }
  ]
}